CSG-2                   
1 51444U 22008A   22057.24150958 -.00000053  00000+0  00000+0 0  9997
2 51444  97.8771 242.5508 0001496  94.6804 265.3166 14.83722033  3742
STARLINK-3167           
1 51460U 22010E   22057.25001157 -.00081005  00000+0 -57683-3 0  9995
2 51460  53.2172  60.8327 0001304  48.2498  93.0552 15.73259662  4809
STARLINK-3181           
1 51461U 22010F   22056.91667824  .00053718  00000+0  38478-3 0  9996
2 51461  53.2174  62.6590 0001223  52.8710 273.5550 15.73196303  2872
STARLINK-3166           
1 51462U 22010G   22057.58334491 -.00060240  00000+0 -42733-3 0  9991
2 51462  53.2166  59.3585 0001421  57.7807  87.1500 15.73229097  4886
STARLINK-3419           
1 51463U 22010H   22056.91667824  .00075935  00000+0  54094-3 0  9995
2 51463  53.2162  62.4747 0001395  41.0970  13.1435 15.73184229  2886
STARLINK-3189           
1 51464U 22010J   22056.91667824  .00085497  00000+0  60799-3 0  9999
2 51464  53.2158  62.6509 0001057  43.7934 284.5358 15.73177597  2871
STARLINK-3401           
1 51465U 22010K   22057.58334491 -.00091874  00000+0 -65586-3 0  9992
2 51465  53.2156  59.3519 0001795  40.2020 106.5946 15.73251187  4912
STARLINK-3178           
1 51467U 22010M   22057.58334491 -.00064887  00000+0 -46100-3 0  9999
2 51467  53.2167  59.1765 0001534  38.3635 194.3860 15.73223342  4910
STARLINK-3174           
1 51468U 22010N   22057.25001157 -.00000397  00000+0  15920-5 0  9997
2 51468  53.2160  60.8284 0001594  45.6952  96.2081 15.73222473  4861
STARLINK-3182           
1 51469U 22010P   22057.58334491 -.00086100  00000+0 -61382-3 0  9992
2 51469  53.2162  59.3561 0001501  50.1775  95.3121 15.73256849  4912
STARLINK-3165           
1 51471U 22010R   22057.49505267 -.00387563  00000+0 -24184-2 0  9991
2 51471  53.2121  58.3104 0001612  62.2318 297.8868 15.77231418  4918
STARLINK-3415           
1 51472U 22010S   22057.58334491 -.00090660  00000+0 -64677-3 0  9992
2 51472  53.2163  59.1782 0001562  39.7734 191.6559 15.73262002  4918
LIGHT-1                 
1 51509U 98067TG  22057.12634336  .00021577  00000+0  36540-3 0  9996
2 51509  51.6468 166.3839 0008128 176.7312 183.3730 15.51451502  3573
GT-1                    
1 51510U 98067TH  22056.66706141  .00053109  00000+0  84455-3 0  9994
2 51510  51.6443 168.5709 0006635 173.4165 186.6914 15.52753671  3527
COSMOS 2553             
1 51511U 22011A   22056.92365960 -.00000046  00000+0 -28494-3 0  9995
2 51511  67.0913 197.9106 0004110 265.3569  94.6905 11.32854064  2342
ONEWEB-0410             
1 51622U 22012A   22057.58334491 -.00833800  00000+0 -30500-1 0  9998
2 51622  87.3928 356.1446 0017328 185.6231 209.4341 15.30476323  3708
ONEWEB-0411             
1 51623U 22012B   22057.58334491 -.00969487  00000+0 -42928-1 0  9997
2 51623  87.4034 356.1727 0015095 189.3632  33.3228 15.24231591  3689
ONEWEB-0415             
1 51624U 22012C   22056.91667824 -.01027530  00000+0 -43041-1 0  9995
2 51624  87.4025 356.4031 0016410 192.7880 349.8628 15.26203272  3020
ONEWEB-0416             
1 51625U 22012D   22057.58334491 -.00949570  00000+0 -37107-1 0  9993
2 51625  87.4037 356.1556 0014401 187.8892 161.9188 15.28753228  3701
ONEWEB-0422             
1 51626U 22012E   22057.25001157 -.00922647  00000+0 -33985-1 0  9994
2 51626  87.4022 356.2657 0016732 190.6911 155.3652 15.30532375  3650
ONEWEB-0423             
1 51627U 22012F   22057.25001157 -.00779895  00000+0 -28021-1 0  9995
2 51627  87.3993 356.2659 0017504 185.5939 180.4489 15.31296718  3656
ONEWEB-0425             
1 51628U 22012G   22057.58334491 -.00936370  00000+0 -39319-1 0  9997
2 51628  87.4053 356.1664 0017061 180.6605 105.4132 15.26304475  3706
ONEWEB-0428             
1 51629U 22012H   22056.91667824 -.01000414  00000+0 -43206-1 0  9995
2 51629  87.4027 356.4079 0014248 192.5237 321.2792 15.25161741  3018
ONEWEB-0431             
1 51630U 22012J   22057.58334491 -.00985832  00000+0 -41344-1 0  9998
2 51630  87.4049 356.1682 0017389 182.1715  95.3744 15.26032651  3706
ONEWEB-0434             
1 51631U 22012K   22057.58334491 -.00983030  00000+0 -40286-1 0  9991
2 51631  87.4051 356.1662 0016259 176.9040 119.8376 15.26809749  3708
ONEWEB-0435             
1 51632U 22012L   22057.58334491 -.00652803  00000+0 -27926-1 0  9999
2 51632  87.4059 356.1780 0017054 189.2928  57.0722 15.25164984  3694
ONEWEB-0436             
1 51633U 22012M   22057.58334491 -.00807459  00000+0 -28350-1 0  9991
2 51633  87.3987 356.1437 0016446 175.7191 258.6297 15.31730472  3716
ONEWEB-0438             
1 51634U 22012N   22056.91667824 -.01004691  00000+0 -37845-1 0  9994
2 51634  87.4052 356.3943 0014262 187.9258  85.2635 15.29654674  3028
ONEWEB-0439             
1 51635U 22012P   22057.58334491 -.00941311  00000+0 -38635-1 0  9996
2 51635  87.4031 356.1583 0015500 177.2334 127.3339 15.27103084  3703
ONEWEB-0442             
1 51636U 22012Q   22057.58334491 -.00837318  00000+0 -29037-1 0  9994
2 51636  87.3976 356.1366 0014551 173.2077 283.1761 15.32251415  3714
ONEWEB-0443             
1 51637U 22012R   22057.58334491 -.00818137  00000+0 -28956-1 0  9992
2 51637  87.3969 356.1450 0016724 177.3951 250.7132 15.31500205  3716
ONEWEB-0444             
1 51638U 22012S   22057.58334491 -.00946031  00000+0 -36654-1 0  9992
2 51638  87.4043 356.1591 0014765 189.9649 165.1824 15.29012577  3706
ONEWEB-0445             
1 51639U 22012T   22057.25001157 -.00904423  00000+0 -35834-1 0  9995
2 51639  87.4032 356.2749 0014807 180.8583 106.0174 15.28157053  3659
ONEWEB-0446             
1 51640U 22012U   22057.58334491 -.00938337  00000+0 -36898-1 0  9995
2 51640  87.4039 356.1563 0013978 186.4794 160.9527 15.28523642  3703
ONEWEB-0448             
1 51641U 22012V   22057.58334491 -.00957341  00000+0 -40725-1 0  9996
2 51641  87.4036 356.1719 0017534 186.4459  75.6846 15.25483047  3699
ONEWEB-0449             
1 51642U 22012W   22057.25001157 -.00893379  00000+0 -37203-1 0  9998
2 51642  87.4033 356.2835 0017557 184.9280  55.1653 15.26433819  3644
ONEWEB-0451             
1 51643U 22012X   22057.58334491 -.00809055  00000+0 -29035-1 0  9997
2 51643  87.3962 356.1469 0017371 180.2296 233.4116 15.31014795  3714
ONEWEB-0452             
1 51644U 22012Y   22057.58334491 -.00807775  00000+0 -27762-1 0  9990
2 51644  87.4014 356.1454 0013986 173.9168 289.8101 15.32460718  3713
ONEWEB-0455             
1 51645U 22012Z   22057.58334491 -.00981524  00000+0 -43071-1 0  9997
2 51645  87.4033 356.1749 0015895 190.7256  42.8500 15.24549026  3685
ONEWEB-0456             
1 51646U 22012AA  22057.58334491 -.00944768  00000+0 -36266-1 0  9995
2 51646  87.4035 356.1517 0015360 189.8673 172.7589 15.29298062  3709
ONEWEB-0457             
1 51647U 22012AB  22056.91667824 -.01033987  00000+0 -39366-1 0  9998
2 51647  87.4013 356.3894 0014189 185.9382  79.8524 15.29386704  2995
ONEWEB-0458             
1 51648U 22012AC  22056.91667824 -.01031025  00000+0 -40968-1 0  9990
2 51648  87.4039 356.3979 0016200 180.6151  49.3249 15.27948463  2990
ONEWEB-0461             
1 51649U 22012AD  22057.58334491 -.00968203  00000+0 -36961-1 0  9990
2 51649  87.4040 356.1550 0015828 190.4687 179.0881 15.29538203  3706
ONEWEB-0463             
1 51650U 22012AE  22057.58334491 -.00835015  00000+0 -29809-1 0  9999
2 51650  87.3980 356.1454 0016996 178.8098 242.0647 15.31268870  3711
ONEWEB-0464             
1 51651U 22012AF  22057.58334491 -.00945744  00000+0 -38145-1 0  9994
2 51651  87.4039 356.1590 0014267 180.9427 144.3979 15.27713413  3702
ONEWEB-0468             
1 51652U 22012AG  22056.91667824 -.01001709  00000+0 -41293-1 0  9993
2 51652  87.4009 356.3981 0017143 190.6284   4.4664 15.26647157  3023
ONEWEB-0473             
1 51653U 22012AH  22057.58334491 -.00965846  00000+0 -39057-1 0  9994
2 51653  87.4052 356.1676 0015415 178.3560 132.8941 15.27220224  3703
ONEWEB-0474             
1 51654U 22012AJ  22057.58334491 -.00913129  00000+0 -40829-1 0  9991
2 51654  87.4029 356.1788 0014082 192.5895  26.3082 15.24207828  3682
ONEWEB-0475             
1 51655U 22012AK  22057.58334491 -.00810066  00000+0 -29739-1 0  9995
2 51655  87.3969 356.1559 0016968 186.4434 202.1985 15.30297244  3704
EOS-4                   
1 51656U 22013A   22057.52657929  .00000744  00000+0  46231-4 0  9996
2 51656  97.5537  66.5076 0011359 201.2825 325.7960 15.12692815  1889
INSPIRESAT-1            
1 51657U 22013B   22057.55923016  .00001697  00000+0  99678-4 0  9994
2 51657  97.5586  66.5605 0010320 209.1253 150.9401 15.13043750  1899
INS-2TD                 
1 51658U 22013C   22056.96269846  .00002738  00000+0  15773-3 0  9993
2 51658  97.5592  65.9725 0009993 212.2292 147.8330 15.13222771  1804
PSLV R/B                
1 51659U 22013D   22056.94390937  .00002422  00000+0  12962-3 0  9995
2 51659  97.5727  66.0560 0032226 297.4390  62.3570 15.15593195  1803
PROGRESS-MS 19          
1 51660U 22014A   22056.65205140  .00006261  00000+0  11783-3 0  9992
2 51660  51.6406 168.9304 0005458 165.6202 332.9109 15.49937935327887
CYGNUS NG-17            
1 51712U 22015A   22056.65205140  .00006261  00000+0  11783-3 0  9991
2 51712  51.6406 168.9304 0005458 165.6202 332.9109 15.49937935327885
ANTARES R/B             
1 51713U 22015B   22056.50810879  .32903579  12528-4  19880-3 0  9999
2 51713  51.6033 166.6771 0014981 168.3424 192.3650 16.53202277   935
STARLINK A              
1 51714U 22016A   22057.25001157 -.00873378  00000+0 -61586-2 0  9991
2 51714  53.2178 116.5630 0001267  65.1229 147.0136 15.75785135  1953
STARLINK B              
1 51715U 22016B   22057.25001157 -.00873517  00000+0 -61287-2 0  9995
2 51715  53.2178 116.5599 0001232  70.4931 142.9849 15.75899294  2014
STARLINK C              
1 51716U 22016C   22057.25001157 -.00873489  00000+0 -61523-2 0  9997
2 51716  53.2178 116.5620 0001198  74.3726 138.2693 15.75812063  1952
